DIRECTV 11              
1 32729U 08013A   26074.17154766 -.00000127  00000+0  00000+0 0  9990
2 32729   0.0056  63.8090 0000247 327.8600 103.6676  1.00272033 44657
GALAXY 18 (G-18)        
1 32951U 08024A   26073.97202346  .00000024  00000+0  00000+0 0  9999
2 32951   0.0195 108.6449 0003055 259.1238  31.7351  1.00272991 44900
INTELSAT 25 (IS-25)     
1 33153U 08034A   26074.06146382 -.00000224  00000+0  00000+0 0  9996
2 33153   2.4631  81.4725 0003239 251.3174 190.4936  1.00270237 64756
GALAXY 19 (G-19)        
1 33376U 08045A   26074.11979074 -.00000140  00000+0  00000+0 0  9990
2 33376   0.0344 251.8682 0002785 114.7662 112.2031  1.00271572 63965
FM-5                    
1 35493U 09034A   26074.12195741 -.00000202  00000+0  00000+0 0  9992
2 35493   0.0382 264.8602 0000693 341.7628 243.8509  1.00278280 45701
INTELSAT 14 (IS-14)     
1 36097U 09064A   26074.25770618 -.00000274  00000+0  00000+0 0  9991
2 36097   0.0213  95.0896 0002341 260.6642 224.8775  1.00271764 59665
INTELSAT 15 (IS-15)     
1 36106U 09067A   26074.15584424 -.00000186  00000+0  00000+0 0  9994
2 36106   0.0141 108.0336 0002254 248.4015 317.5758  1.00271558 40281
DIRECTV 12              
1 36131U 09075A   26073.37683439 -.00000104  00000+0  00000+0 0  9990
2 36131   0.0343   6.3915 0000499  43.7856 154.7534  1.00271383 45604
INTELSAT 16 (IS-16)     
1 36397U 10006A   26073.98129683 -.00000245  00000+0  00000+0 0  9999
2 36397   0.0234  89.0587 0001982 280.4404  80.1506  1.00271505 58709
XM-5                    
1 37185U 10053A   26073.97349679 -.00000024  00000+0  00000+0 0  9990
2 37185   0.0698 271.8650 0003580 256.4013 239.5673  1.00270062 56537
INTELSAT 17 (IS-17)     
1 37238U 10065B   26074.09697559 -.00000002  00000+0  00000+0 0  9995
2 37238   0.0139 172.4383 0002551 198.4742 262.6854  1.00271955 52307
INTELSAT 28 (IS-28)     
1 37392U 11016A   26074.27535807 -.00000225  00000+0  00000+0 0  9997
2 37392   1.5617  83.8231 0004598 273.5847 242.9014  1.00271679 52342
INTELSAT 18 (IS-18)     
1 37834U 11056A   26074.10332400  .00000052  00000+0  00000+0 0  9995
2 37834   0.0350 260.1897 0001643 111.0720  18.6337  1.00273979 52861
INTELSAT 22 (IS-22)     
1 38098U 12011A   26074.15324422 -.00000059  00000+0  00000+0 0  9998
2 38098   0.0247 111.2308 0001745 241.1662 307.6073  1.00270756  6244
INTELSAT 19 (IS-19)     
1 38356U 12030A   26074.22544666 -.00000057  00000+0  00000+0 0  9996
2 38356   0.0182 138.6698 0002929 221.7115  59.6071  1.00271736 49503
INTELSAT 20 (IS-20)     
1 38740U 12043A   26073.93865664 -.00000025  00000+0  00000+0 0  9993
2 38740   0.0180 128.5078 0002558  38.3061  52.1235  1.00270685 49803
INTELSAT 21 (IS-21)     
1 38749U 12045A   26074.27015804 -.00000286  00000+0  00000+0 0  9994
2 38749   0.0195 149.5322 0001905 221.6175 200.9788  1.00271820 49584
