[{"OBJECT_NAME":"DIRECTV 11","OBJECT_ID":"2008-013A","EPOCH":"2026-03-15T04:07:01.717824","MEAN_MOTION":1.00272033,"ECCENTRICITY":2.478e-5,"INCLINATION":0.0056,"RA_OF_ASC_NODE":63.809,"ARG_OF_PERICENTER":327.86,"MEAN_ANOMALY":103.6676,"EPHEMERIS_TYPE":0,"CLASSIFICATION_TYPE":"U","NORAD_CAT_ID":32729,"ELEMENT_SET_NO":999,"REV_AT_EPOCH":4465,"BSTAR":0,"MEAN_MOTION_DOT":-1.27e-6,"MEAN_MOTION_DDOT":0},{"OBJECT_NAME":"GALAXY 18 (G-18)","OBJECT_ID":"2008-024A","EPOCH":"2026-03-14T23:19:42.826944","MEAN_MOTION":1.00272991,"ECCENTRICITY":0.00030556,"INCLINATION":0.0195,"RA_OF_ASC_NODE":108.6449,"ARG_OF_PERICENTER":259.1238,"MEAN_ANOMALY":31.7351,"EPHEMERIS_TYPE":0,"CLASSIFICATION_TYPE":"U","NORAD_CAT_ID":32951,"ELEMENT_SET_NO":999,"REV_AT_EPOCH":4490,"BSTAR":0,"MEAN_MOTION_DOT":2.4e-7,"MEAN_MOTION_DDOT":0},{"OBJECT_NAME":"INTELSAT 25 (IS-25)","OBJECT_ID":"2008-034A","EPOCH":"2026-03-15T01:28:30.474048","MEAN_MOTION":1.00270237,"ECCENTRICITY":0.00032395,"INCLINATION":2.4631,"RA_OF_ASC_NODE":81.4725,"ARG_OF_PERICENTER":251.3174,"MEAN_ANOMALY":190.4936,"EPHEMERIS_TYPE":0,"CLASSIFICATION_TYPE":"U","NORAD_CAT_ID":33153,"ELEMENT_SET_NO":999,"REV_AT_EPOCH":6475,"BSTAR":0,"MEAN_MOTION_DOT":-2.24e-6,"MEAN_MOTION_DDOT":0},{"OBJECT_NAME":"GALAXY 19 (G-19)","OBJECT_ID":"2008-045A","EPOCH":"2026-03-15T02:52:29.919936","MEAN_MOTION":1.00271572,"ECCENTRICITY":0.00027857,"INCLINATION":0.0344,"RA_OF_ASC_NODE":251.8682,"ARG_OF_PERICENTER":114.7662,"MEAN_ANOMALY":112.2031,"EPHEMERIS_TYPE":0,"CLASSIFICATION_TYPE":"U","NORAD_CAT_ID":33376,"ELEMENT_SET_NO":999,"REV_AT_EPOCH":6396,"BSTAR":0,"MEAN_MOTION_DOT":-1.4e-6,"MEAN_MOTION_DDOT":0},{"OBJECT_NAME":"FM-5","OBJECT_ID":"2009-034A","EPOCH":"2026-03-15T02:55:37.120224","MEAN_MOTION":1.0027828,"ECCENTRICITY":6.937e-5,"INCLINATION":0.0382,"RA_OF_ASC_NODE":264.8602,"ARG_OF_PERICENTER":341.7628,"MEAN_ANOMALY":243.8509,"EPHEMERIS_TYPE":0,"CLASSIFICATION_TYPE":"U","NORAD_CAT_ID":35493,"ELEMENT_SET_NO":999,"REV_AT_EPOCH":4570,"BSTAR":0,"MEAN_MOTION_DOT":-2.02e-6,"MEAN_MOTION_DDOT":0},{"OBJECT_NAME":"INTELSAT 14 (IS-14)","OBJECT_ID":"2009-064A","EPOCH":"2026-03-15T06:11:05.813952","MEAN_MOTION":1.00271764,"ECCENTRICITY":0.0002341,"INCLINATION":0.0213,"RA_OF_ASC_NODE":95.0896,"ARG_OF_PERICENTER":260.6642,"MEAN_ANOMALY":224.8775,"EPHEMERIS_TYPE":0,"CLASSIFICATION_TYPE":"U","NORAD_CAT_ID":36097,"ELEMENT_SET_NO":999,"REV_AT_EPOCH":5966,"BSTAR":0,"MEAN_MOTION_DOT":-2.74e-6,"MEAN_MOTION_DDOT":0},{"OBJECT_NAME":"INTELSAT 15 (IS-15)","OBJECT_ID":"2009-067A","EPOCH":"2026-03-15T03:44:24.942336","MEAN_MOTION":1.00271558,"ECCENTRICITY":0.00022541,"INCLINATION":0.0141,"RA_OF_ASC_NODE":108.0336,"ARG_OF_PERICENTER":248.4015,"MEAN_ANOMALY":317.5758,"EPHEMERIS_TYPE":0,"CLASSIFICATION_TYPE":"U","NORAD_CAT_ID":36106,"ELEMENT_SET_NO":999,"REV_AT_EPOCH":4028,"BSTAR":0,"MEAN_MOTION_DOT":-1.86e-6,"MEAN_MOTION_DDOT":0},{"OBJECT_NAME":"DIRECTV 12","OBJECT_ID":"2009-075A","EPOCH":"2026-03-14T09:02:38.491296","MEAN_MOTION":1.00271383,"ECCENTRICITY":4.999e-5,"INCLINATION":0.0343,"RA_OF_ASC_NODE":6.3915,"ARG_OF_PERICENTER":43.7856,"MEAN_ANOMALY":154.7534,"EPHEMERIS_TYPE":0,"CLASSIFICATION_TYPE":"U","NORAD_CAT_ID":36131,"ELEMENT_SET_NO":999,"REV_AT_EPOCH":4560,"BSTAR":0,"MEAN_MOTION_DOT":-1.04e-6,"MEAN_MOTION_DDOT":0},{"OBJECT_NAME":"INTELSAT 16 (IS-16)","OBJECT_ID":"2010-006A","EPOCH":"2026-03-14T23:33:04.046112","MEAN_MOTION":1.00271505,"ECCENTRICITY":0.00019824,"INCLINATION":0.0234,"RA_OF_ASC_NODE":89.0587,"ARG_OF_PERICENTER":280.4404,"MEAN_ANOMALY":80.1506,"EPHEMERIS_TYPE":0,"CLASSIFICATION_TYPE":"U","NORAD_CAT_ID":36397,"ELEMENT_SET_NO":999,"REV_AT_EPOCH":5870,"BSTAR":0,"MEAN_MOTION_DOT":-2.45e-6,"MEAN_MOTION_DDOT":0},{"OBJECT_NAME":"XM-5","OBJECT_ID":"2010-053A","EPOCH":"2026-03-14T23:21:50.122656","MEAN_MOTION":1.00270062,"ECCENTRICITY":0.00035809,"INCLINATION":0.0698,"RA_OF_ASC_NODE":271.865,"ARG_OF_PERICENTER":256.4013,"MEAN_ANOMALY":239.5673,"EPHEMERIS_TYPE":0,"CLASSIFICATION_TYPE":"U","NORAD_CAT_ID":37185,"ELEMENT_SET_NO":999,"REV_AT_EPOCH":5653,"BSTAR":0,"MEAN_MOTION_DOT":-2.4e-7,"MEAN_MOTION_DDOT":0},{"OBJECT_NAME":"INTELSAT 17 (IS-17)","OBJECT_ID":"2010-065B","EPOCH":"2026-03-15T02:19:38.690976","MEAN_MOTION":1.00271955,"ECCENTRICITY":0.00025513,"INCLINATION":0.0139,"RA_OF_ASC_NODE":172.4383,"ARG_OF_PERICENTER":198.4742,"MEAN_ANOMALY":262.6854,"EPHEMERIS_TYPE":0,"CLASSIFICATION_TYPE":"U","NORAD_CAT_ID":37238,"ELEMENT_SET_NO":999,"REV_AT_EPOCH":5230,"BSTAR":0,"MEAN_MOTION_DOT":-2.0e-8,"MEAN_MOTION_DDOT":0},{"OBJECT_NAME":"INTELSAT 28 (IS-28)","OBJECT_ID":"2011-016A","EPOCH":"2026-03-15T06:36:30.937248","MEAN_MOTION":1.00271679,"ECCENTRICITY":0.00045988,"INCLINATION":1.5617,"RA_OF_ASC_NODE":83.8231,"ARG_OF_PERICENTER":273.5847,"MEAN_ANOMALY":242.9014,"EPHEMERIS_TYPE":0,"CLASSIFICATION_TYPE":"U","NORAD_CAT_ID":37392,"ELEMENT_SET_NO":999,"REV_AT_EPOCH":5234,"BSTAR":0,"MEAN_MOTION_DOT":-2.25e-6,"MEAN_MOTION_DDOT":0},{"OBJECT_NAME":"INTELSAT 18 (IS-18)","OBJECT_ID":"2011-056A","EPOCH":"2026-03-15T02:28:47.193600","MEAN_MOTION":1.00273979,"ECCENTRICITY":0.00016433,"INCLINATION":0.035,"RA_OF_ASC_NODE":260.1897,"ARG_OF_PERICENTER":111.072,"MEAN_ANOMALY":18.6337,"EPHEMERIS_TYPE":0,"CLASSIFICATION_TYPE":"U","NORAD_CAT_ID":37834,"ELEMENT_SET_NO":999,"REV_AT_EPOCH":5286,"BSTAR":0,"MEAN_MOTION_DOT":5.2e-7,"MEAN_MOTION_DDOT":0},{"OBJECT_NAME":"INTELSAT 22 (IS-22)","OBJECT_ID":"2012-011A","EPOCH":"2026-03-15T03:40:40.300608","MEAN_MOTION":1.00270756,"ECCENTRICITY":0.00017459,"INCLINATION":0.0247,"RA_OF_ASC_NODE":111.2308,"ARG_OF_PERICENTER":241.1662,"MEAN_ANOMALY":307.6073,"EPHEMERIS_TYPE":0,"CLASSIFICATION_TYPE":"U","NORAD_CAT_ID":38098,"ELEMENT_SET_NO":999,"REV_AT_EPOCH":624,"BSTAR":0,"MEAN_MOTION_DOT":-5.9e-7,"MEAN_MOTION_DDOT":0},{"OBJECT_NAME":"INTELSAT 19 (IS-19)","OBJECT_ID":"2012-030A","EPOCH":"2026-03-15T05:24:38.591424","MEAN_MOTION":1.00271736,"ECCENTRICITY":0.0002929,"INCLINATION":0.0182,"RA_OF_ASC_NODE":138.6698,"ARG_OF_PERICENTER":221.7115,"MEAN_ANOMALY":59.6071,"EPHEMERIS_TYPE":0,"CLASSIFICATION_TYPE":"U","NORAD_CAT_ID":38356,"ELEMENT_SET_NO":999,"REV_AT_EPOCH":4950,"BSTAR":0,"MEAN_MOTION_DOT":-5.7e-7,"MEAN_MOTION_DDOT":0},{"OBJECT_NAME":"INTELSAT 20 (IS-20)","OBJECT_ID":"2012-043A","EPOCH":"2026-03-14T22:31:39.933696","MEAN_MOTION":1.00270685,"ECCENTRICITY":0.00025588,"INCLINATION":0.018,"RA_OF_ASC_NODE":128.5078,"ARG_OF_PERICENTER":38.3061,"MEAN_ANOMALY":52.1235,"EPHEMERIS_TYPE":0,"CLASSIFICATION_TYPE":"U","NORAD_CAT_ID":38740,"ELEMENT_SET_NO":999,"REV_AT_EPOCH":4980,"BSTAR":0,"MEAN_MOTION_DOT":-2.5e-7,"MEAN_MOTION_DDOT":0},{"OBJECT_NAME":"INTELSAT 21 (IS-21)","OBJECT_ID":"2012-045A","EPOCH":"2026-03-15T06:29:01.654656","MEAN_MOTION":1.0027182,"ECCENTRICITY":0.00019058,"INCLINATION":0.0195,"RA_OF_ASC_NODE":149.5322,"ARG_OF_PERICENTER":221.6175,"MEAN_ANOMALY":200.9788,"EPHEMERIS_TYPE":0,"CLASSIFICATION_TYPE":"U","NORAD_CAT_ID":38749,"ELEMENT_SET_NO":999,"REV_AT_EPOCH":4958,"BSTAR":0,"MEAN_MOTION_DOT":-2.86e-6,"MEAN_MOTION_DDOT":0}]
